NORAD_CAT_ID,OBJECT_NAME,OBJECT_TYPE,EPOCH,MEAN_MOTION,ECCENTRICITY,INCLINATION,RA_OF_ASC_NODE,ARG_OF_PERICENTER,MEAN_ANOMALY,BSTAR,MEAN_MOTION_DOT,MEAN_MOTION_DDOT,TLE_LINE0,TLE_LINE1,TLE_LINE2,SEMIMAJOR_AXIS,PERIOD,APOGEE,PERIGEE,DECAYED
53159.0,STARLINK-4111,PAYLOAD,2024-05-24 22:03:38,15.08845332,0.0001215,53.215,219.0076,81.381,278.7319,0.00014543,2.028e-05,0.0,0 STARLINK-4111,1 53159U 22083AD  24145.91919695  .00002028  00000-0  14543-3 0  9995,2 53159  53.2150 219.0076 0001215  81.3810 278.7319 15.08845332102667,6917.864,95.437,540.57,538.889,0.0
53159.0,STARLINK-4111,PAYLOAD,2024-05-25 12:22:07,15.08830436,0.0001593,53.2148,216.3355,85.7547,274.3627,-6.2277e-05,-1.279e-05,0.0,0 STARLINK-4111,1 53159U 22083AD  24146.51536936 -.00001279  00000-0 -62277-4 0  9992,2 53159  53.2148 216.3355 0001593  85.7547 274.3627 15.08830436103381,6917.91,95.438,540.877,538.673,0.0
53159.0,STARLINK-4111,PAYLOAD,2024-05-26 04:15:59,15.08840043,0.0001567,53.2145,213.3601,84.6533,275.4638,7.3309e-05,8.79e-06,0.0,0 STARLINK-4111,1 53159U 22083AD  24147.17776820  .00000879  00000-0  73309-4 0  9994,2 53159  53.2145 213.3601 0001567  84.6533 275.4638 15.08840043103483,6917.88,95.438,540.829,538.661,0.0
53159.0,STARLINK-4111,PAYLOAD,2024-05-26 10:37:31,15.08846912,0.0001424,53.2147,212.17,98.7783,261.3371,0.00020196,2.928e-05,0.0,0 STARLINK-4111,1 53159U 22083AD  24147.44272424  .00002928  00000-0  20196-3 0  9997,2 53159  53.2147 212.1700 0001424  98.7783 261.3371 15.08846912102890,6917.859,95.437,540.709,538.739,0.0
53159.0,STARLINK-4111,PAYLOAD,2024-05-27 10:28:18,15.08839741,0.0001593,53.2152,207.7113,87.894,272.2235,0.00014198,1.972e-05,0.0,0 STARLINK-4111,1 53159U 22083AD  24148.43633060  .00001972  00000-0  14198-3 0  9997,2 53159  53.2152 207.7113 0001593  87.8940 272.2235 15.08839741103674,6917.881,95.438,540.848,538.644,0.0
53159.0,STARLINK-4111,PAYLOAD,2024-05-27 13:39:05,15.08841771,0.000156,53.215,207.1156,90.576,269.5411,0.00015873,2.239e-05,0.0,0 STARLINK-4111,1 53159U 22083AD  24148.56880928  .00002239  00000-0  15873-3 0  9996,2 53159  53.2150 207.1156 0001560  90.5760 269.5411 15.08841771103062,6917.875,95.437,540.819,538.661,0.0
53159.0,STARLINK-4111,PAYLOAD,2024-05-28 10:19:05,15.08847417,0.0001559,53.2147,203.2499,89.2928,270.8243,0.00014441,2.011e-05,0.0,0 STARLINK-4111,1 53159U 22083AD  24149.42992464  .00002011  00000-0  14441-3 0  9999,2 53159  53.2147 203.2499 0001559  89.2928 270.8243 15.08847417103199,6917.858,95.437,540.801,538.644,0.0
53159.0,STARLINK-4111,PAYLOAD,2024-05-29 03:48:20,15.08842127,0.0001534,53.2157,199.9783,83.5613,276.5553,8.5982e-05,1.081e-05,0.0,0 STARLINK-4111,1 53159U 22083AD  24150.15856564  .00001081  00000-0  85982-4 0  9996,2 53159  53.2157 199.9783 0001534  83.5613 276.5553 15.08842127103930,6917.874,95.437,540.8,538.678,0.0
53159.0,STARLINK-4111,PAYLOAD,2024-05-29 10:09:52,15.08839033,0.0001495,53.216,198.7888,91.5534,268.563,3.8956e-05,3.32e-06,0.0,0 STARLINK-4111,1 53159U 22083AD  24150.42352752  .00000332  00000-0  38956-4 0  9993,2 53159  53.2160 198.7888 0001495  91.5534 268.5630 15.08839033103348,6917.883,95.438,540.783,538.714,0.0
53159.0,STARLINK-4111,PAYLOAD,2024-05-30 08:25:16,15.0884284,0.0001499,53.2161,194.6267,93.3721,266.7443,3.5709e-05,2.8e-06,0.0,0 STARLINK-4111,1 53159U 22083AD  24151.35088468  .00000280  00000-0  35709-4 0  9991,2 53159  53.2161 194.6267 0001499  93.3721 266.7443 15.08842840104115,6917.872,95.437,540.774,538.7,0.0
53159.0,STARLINK-4111,PAYLOAD,2024-05-31 11:26:50,15.08838814,0.0001397,53.2158,189.5718,85.3552,274.76,5.9988e-05,6.67e-06,0.0,0 STARLINK-4111,1 53159U 22083AD  24152.47696832  .00000667  00000-0  59988-4 0  9999,2 53159  53.2158 189.5718 0001397  85.3552 274.7600 15.08838814104283,6917.884,95.438,540.715,538.783,0.0
53159.0,STARLINK-4111,PAYLOAD,2024-06-01 09:42:14,15.08839612,0.0001444,53.2161,185.4093,87.3666,272.7491,4.3595e-05,4.06e-06,0.0,0 STARLINK-4111,1 53159U 22083AD  24153.40432936  .00000406  00000-0  43595-4 0  9994,2 53159  53.2161 185.4093 0001444  87.3666 272.7491 15.08839612103797,6917.882,95.438,540.746,538.748,0.0
53159.0,STARLINK-4111,PAYLOAD,2024-06-01 19:14:32,15.08839458,0.0001458,53.2161,183.6249,84.8854,275.2305,5.0577e-05,5.17e-06,0.0,0 STARLINK-4111,1 53159U 22083AD  24153.80176987  .00000517  00000-0  50577-4 0  9990,2 53159  53.2161 183.6249 0001458  84.8854 275.2305 15.08839458104483,6917.882,95.438,540.756,538.738,0.0
53159.0,STARLINK-4111,PAYLOAD,2024-06-02 09:33:01,15.0883886,0.000137,53.2156,180.9478,85.8577,274.2572,6.6871e-05,7.76e-06,0.0,0 STARLINK-4111,1 53159U 22083AD  24154.39793094  .00000776  00000-0  66871-4 0  9990,2 53159  53.2156 180.9478 0001370  85.8577 274.2572 15.08838860103948,6917.884,95.438,540.697,538.801,0.0
53159.0,STARLINK-4111,PAYLOAD,2024-06-03 01:26:52,15.08840941,0.000137,53.2155,177.9741,85.6799,274.4349,5.5771e-05,6e-06,0.0,0 STARLINK-4111,1 53159U 22083AD  24155.06033084  .00000600  00000-0  55771-4 0  9994,2 53159  53.2155 177.9741 0001370  85.6799 274.4349 15.08840941104678,6917.878,95.437,540.69,538.795,0.0
53159.0,STARLINK-4111,PAYLOAD,2024-06-03 10:59:11,15.08842633,0.0001345,53.2154,176.1895,87.2087,272.9059,6.616e-05,7.65e-06,0.0,0 STARLINK-4111,1 53159U 22083AD  24155.45776998  .00000765  00000-0  66160-4 0  9991,2 53159  53.2154 176.1895 0001345  87.2087 272.9059 15.08842633104107,6917.872,95.437,540.668,538.807,0.0
53159.0,STARLINK-4111,PAYLOAD,2024-06-03 18:56:06,15.08842889,0.0001346,53.2155,174.7026,87.2755,272.8392,7.2494e-05,8.66e-06,0.0,0 STARLINK-4111,1 53159U 22083AD  24155.78896927  .00000866  00000-0  72494-4 0  9991,2 53159  53.2155 174.7026 0001346  87.2755 272.8392 15.08842889104158,6917.872,95.437,540.668,538.805,0.0
53159.0,STARLINK-4111,PAYLOAD,2024-06-04 07:39:08,15.08879841,0.0001348,53.2155,172.3234,94.4768,265.6378,0.00038655,5.876e-05,0.0,0 STARLINK-4111,1 53159U 22083AD  24156.31885361  .00005876  00000-0  38655-3 0  9997,2 53159  53.2155 172.3234 0001348  94.4768 265.6378 15.08879841104869,6917.759,95.435,540.556,538.691,0.0
53159.0,STARLINK-4111,PAYLOAD,2024-06-05 04:19:12,15.08835776,0.0001204,53.2141,168.457,73.8845,286.228,-4.2325e-05,-9.61e-06,0.0,0 STARLINK-4111,1 53159U 22083AD  24157.18000576 -.00000961  00000-0 -42325-4 0  9992,2 53159  53.2141 168.4570 0001204  73.8845 286.2280 15.08835776104995,6917.893,95.438,540.591,538.925,0.0
53159.0,STARLINK-4111,PAYLOAD,2024-06-05 07:29:58,15.08836134,0.0001233,53.2145,167.8622,77.561,282.5521,-4.1478e-05,-9.48e-06,0.0,0 STARLINK-4111,1 53159U 22083AD  24157.31248561 -.00000948  00000-0 -41478-4 0  9998,2 53159  53.2145 167.8622 0001233  77.5610 282.5521 15.08836134104382,6917.892,95.438,540.61,538.904,0.0
53159.0,STARLINK-4111,PAYLOAD,2024-06-06 07:20:45,15.08842023,0.0001459,53.2157,163.4026,83.0132,277.1026,-0.00011538,-2.124e-05,0.0,0 STARLINK-4111,1 53159U 22083AD  24158.30608454 -.00002124  00000-0 -11538-3 0  9990,2 53159  53.2157 163.4026 0001459  83.0132 277.1026 15.08842023105167,6917.874,95.437,540.749,538.73,0.0
53159.0,STARLINK-4111,PAYLOAD,2024-06-07 00:50:00,15.08824709,0.0001488,53.2155,160.1319,81.0704,279.0456,7.4134e-05,8.92e-06,0.0,0 STARLINK-4111,1 53159U 22083AD  24159.03473110  .00000892  00000-0  74134-4 0  9990,2 53159  53.2155 160.1319 0001488  81.0704 279.0456 15.08824709105270,6917.927,95.439,540.822,538.763,0.0
53159.0,STARLINK-4111,PAYLOAD,2024-06-07 16:43:52,15.0883017,0.0001521,53.2157,157.1581,80.8227,279.2937,0.00010943,1.454e-05,0.0,0 STARLINK-4111,1 53159U 22083AD  24159.69713310  .00001454  00000-0  10943-3 0  9993,2 53159  53.2157 157.1581 0001521  80.8227 279.2937 15.08830170104740,6917.91,95.438,540.828,538.723,0.0
53159.0,STARLINK-4111,PAYLOAD,2024-06-08 05:26:57,15.08837917,0.0001488,53.2154,154.7789,80.5746,279.5414,0.00013433,1.85e-05,0.0,0 STARLINK-4111,1 53159U 22083AD  24160.22705076  .00001850  00000-0  13433-3 0  9991,2 53159  53.2154 154.7789 0001488  80.5746 279.5414 15.08837917105453,6917.887,95.438,540.781,538.722,0.0
53159.0,STARLINK-4111,PAYLOAD,2024-06-08 08:37:43,15.08840389,0.000151,53.2155,154.1844,81.4578,278.6585,0.00015756,2.221e-05,0.0,0 STARLINK-4111,1 53159U 22083AD  24160.35952943  .00002221  00000-0  15756-3 0  9995,2 53159  53.2155 154.1844 0001510  81.4578 278.6585 15.08840389104847,6917.879,95.438,540.789,538.7,0.0
53159.0,STARLINK-4111,PAYLOAD,2024-06-08 16:34:39,15.08834413,0.0001472,53.2153,152.6979,85.0733,275.0427,0.00010806,1.432e-05,0.0,0 STARLINK-4111,1 53159U 22083AD  24160.69073576  .00001432  00000-0  10806-3 0  9992,2 53159  53.2153 152.6979 0001472  85.0733 275.0427 15.08834413104899,6917.897,95.438,540.781,538.744,0.0
53159.0,STARLINK-4111,PAYLOAD,2024-06-09 05:17:45,15.08830816,0.0001469,53.2154,150.3184,87.0719,273.0441,6.4185e-05,7.33e-06,0.0,0 STARLINK-4111,1 53159U 22083AD  24161.22066261  .00000733  00000-0  64185-4 0  9998,2 53159  53.2154 150.3184 0001469  87.0719 273.0441 15.08830816105602,6917.908,95.438,540.79,538.757,0.0
53159.0,STARLINK-4111,PAYLOAD,2024-06-09 06:53:08,15.08831811,0.0001494,53.2156,150.0212,87.1329,272.9834,7.043e-05,8.33e-06,0.0,0 STARLINK-4111,1 53159U 22083AD  24161.28690216  .00000833  00000-0  70430-4 0  9998,2 53159  53.2156 150.0212 0001494  87.1329 272.9834 15.08831811104989,6917.905,95.438,540.804,538.737,0.0
53159.0,STARLINK-4111,PAYLOAD,2024-06-09 16:25:27,15.0883626,0.0001531,53.2158,148.2374,89.1756,270.9411,8.9362e-05,1.134e-05,0.0,0 STARLINK-4111,1 53159U 22083AD  24161.68434047  .00001134  00000-0  89362-4 0  9999,2 53159  53.2158 148.2374 0001531  89.1756 270.9411 15.08836260105047,6917.892,95.438,540.816,538.698,0.0
53159.0,STARLINK-4111,PAYLOAD,2024-06-10 05:08:31,15.08843089,0.0001514,53.2155,145.8582,90.4706,269.6459,8.5656e-05,1.076e-05,0.0,0 STARLINK-4111,1 53159U 22083AD  24162.21425661  .00001076  00000-0  85656-4 0  9998,2 53159  53.2155 145.8582 0001514  90.4706 269.6459 15.08843089105751,6917.871,95.437,540.783,538.689,0.0
